CCSDS_OEM_VERS = 1.0
CREATION_DATE  = 2017-05-11T11:08:35
ORIGINATOR     = GMAT USER

META_START
OBJECT_NAME          = MOPSSat_alt_35785_km_RAAN_0_162
OBJECT_ID            = SatId
CENTER_NAME          = Earth
REF_FRAME            = EME2000
TIME_SYSTEM          = UTC
START_TIME           = 2017-01-01T00:00:00.000
USEABLE_START_TIME   = 2017-01-01T00:00:00.000
USEABLE_STOP_TIME    = 2017-01-02T00:00:00.000
STOP_TIME            = 2017-01-02T00:00:00.000
INTERPOLATION        = Lagrange
INTERPOLATION_DEGREE = 7 
META_STOP


                                                                                   

2017-01-01T01:04:10.000   8.564536585279669e+03   2.009435286920167e+04   3.414196337688205e-01  -3.536317187803781e+00   3.812496868169583e+00   6.464287959424717e-05
2017-01-01T01:04:20.000   8.529157072376804e+03   2.013243941937212e+04   3.420654693937588e-01  -3.539581678883785e+00   3.804814603327856e+00   6.452428159680026e-05
2017-01-01T01:04:30.000   8.493745029435118e+03   2.017044918620761e+04   3.427101200597673e-01  -3.542823195453880e+00   3.797140191858826e+00   6.440588760385972e-05
2017-01-01T01:04:40.000   8.458300685590833e+03   2.020838224862717e+04   3.433535878120280e-01  -3.546041831761808e+00   3.789473680943689e+00   6.428769813664318e-05
2017-01-01T01:04:50.000   8.422824269077990e+03   2.024623868597070e+04   3.439958747000842e-01  -3.549237681878252e+00   3.781815117152654e+00   6.416971370719450e-05
2017-01-01T01:05:00.000   8.387316007274154e+03   2.028401857795355e+04   3.446369827770716e-01  -3.552410839691918e+00   3.774164546457848e+00   6.405193481854636e-05
2017-01-01T01:05:10.000   8.351776126593390e+03   2.032172200477295e+04   3.452769141015403e-01  -3.555561398915811e+00   3.766522014214738e+00   6.393436196444034e-05
2017-01-01T01:05:20.000   8.316204852959459e+03   2.035934904661267e+04   3.459156707290476e-01  -3.558689453045304e+00   3.758887565266459e+00   6.381699563097723e-05
2017-01-01T01:05:30.000   8.280602411237083e+03   2.039689978423155e+04   3.465532547221696e-01  -3.561795095403659e+00   3.751261243826996e+00   6.369983629477359e-05
2017-01-01T01:05:40.000   8.244969025445593e+03   2.043437429873551e+04   3.471896681466408e-01  -3.564878419121325e+00   3.743643093530748e+00   6.358288442377143e-05
2017-01-01T01:05:50.000   8.209304917941494e+03   2.047177267243448e+04   3.478249130859170e-01  -3.567939517204603e+00   3.736033157261581e+00   6.346614047445715e-05
2017-01-01T01:06:00.000   8.173610310237297e+03   2.050909498797510e+04   3.484589916264597e-01  -3.570978482462006e+00   3.728431477332178e+00   6.334960489480398e-05
2017-01-01T01:06:10.000   8.137885422818904e+03   2.054634132853145e+04   3.490919058609860e-01  -3.573995407518392e+00   3.720838095448596e+00   6.323327812365869e-05
2017-01-01T01:06:20.000   8.102130475606046e+03   2.058351177730631e+04   3.497236578800219e-01  -3.576990384770491e+00   3.713253052814101e+00   6.311716059260536e-05
2017-01-01T01:06:30.000   8.066345687615001e+03   2.062060641789427e+04   3.503542497780668e-01  -3.579963506416710e+00   3.705676390059328e+00   6.300125272463030e-05
2017-01-01T01:06:40.000   8.030531276958944e+03   2.065762533427182e+04   3.509836836534442e-01  -3.582914864453657e+00   3.698108147247038e+00   6.288555493430344e-05
2017-01-01T01:06:50.000   7.994687461198257e+03   2.069456861044576e+04   3.516119616023178e-01  -3.585844550648440e+00   3.690548363948102e+00   6.277006762864969e-05
2017-01-01T01:07:00.000   7.958814456874975e+03   2.073143633091739e+04   3.522390857266133e-01  -3.588752656571959e+00   3.682997079148831e+00   6.265479120603521e-05
2017-01-01T01:07:10.000   7.922912479698542e+03   2.076822858049056e+04   3.528650581307619e-01  -3.591639273582433e+00   3.675454331293577e+00   6.253972605671977e-05
2017-01-01T01:07:20.000   7.886981743737838e+03   2.080494544509685e+04   3.534898809357490e-01  -3.594504492888567e+00   3.667920158118737e+00   6.242487256061446e-05
2017-01-01T01:07:30.000   7.851022462233040e+03   2.084158701095845e+04   3.541135562648888e-01  -3.597348405482033e+00   3.660394596827354e+00   6.231023108967004e-05
2017-01-01T01:07:40.000   7.815034847415162e+03   2.087815336477221e+04   3.547360862469626e-01  -3.600171102150671e+00   3.652877684054663e+00   6.219580200745776e-05
2017-01-01T01:07:50.000   7.779019110970382e+03   2.091464459322011e+04   3.553574730079166e-01  -3.602972673437031e+00   3.645369455970869e+00   6.208158567047532e-05
2017-01-01T01:08:00.000   7.742975463700152e+03   2.095106078332614e+04   3.559777186769303e-01  -3.605753209666597e+00   3.637869948211839e+00   6.196758242736155e-05
2017-01-01T01:08:10.000   7.706904115521827e+03   2.098740202244686e+04   3.565968253862732e-01  -3.608512800944749e+00   3.630379195883759e+00   6.185379261887837e-05
2017-01-01T01:08:20.000   7.670805275821375e+03   2.102366839792645e+04   3.572147952654259e-01  -3.611251537131167e+00   3.622897233638180e+00   6.174021657931645e-05
2017-01-01T01:08:30.000   7.634679152984922e+03   2.105985999755283e+04   3.578316304488754e-01  -3.613969507871148e+00   3.615424095580251e+00   6.162685463484755e-05
2017-01-01T01:08:40.000   7.598525954589466e+03   2.109597690936591e+04   3.584473330728593e-01  -3.616666802580204e+00   3.607959815311500e+00   6.151370710427534e-05
2017-01-01T01:08:50.000   7.562345886575606e+03   2.113201922248126e+04   3.590619052894173e-01  -3.619343510504268e+00   3.600504425762663e+00   6.140077429623931e-05
2017-01-01T01:09:00.000   7.526139154081169e+03   2.116798702625337e+04   3.596753492521416e-01  -3.621999720655752e+00   3.593057959369596e+00   6.128805651215594e-05
2017-01-01T01:09:10.000   7.489905961229142e+03   2.120388041048593e+04   3.602876671197701e-01  -3.624635521828188e+00   3.585620448032909e+00   6.117555404551626e-05
2017-01-01T01:09:20.000   7.453646511705517e+03   2.123969946484525e+04   3.608988610462093e-01  -3.627251002550233e+00   3.578191923241812e+00   6.106326718403307e-05
2017-01-01T01:09:30.000   7.417361008287125e+03   2.127544427933643e+04   3.615089331886533e-01  -3.629846251121108e+00   3.570772415979168e+00   6.095119620794384e-05
2017-01-01T01:09:40.000   7.381049652949710e+03   2.131111494419060e+04   3.621178857056755e-01  -3.632421355600711e+00   3.563361956747653e+00   6.083934139050057e-05
2017-01-01T01:09:50.000   7.344712646843304e+03   2.134671154989419e+04   3.627257207577305e-01  -3.634976403811757e+00   3.555960575567182e+00   6.072770299770282e-05
2017-01-01T01:10:00.000   7.308350190256740e+03   2.138223418721488e+04   3.633324405076181e-01  -3.637511483339610e+00   3.548568301972061e+00   6.061628128848548e-05
2017-01-01T01:10:10.000   7.271962482607152e+03   2.141768294721024e+04   3.639380471206410e-01  -3.640026681531977e+00   3.541185165012237e+00   6.050507651467246e-05
2017-01-01T01:10:20.000   7.235549722313026e+03   2.145305792135210e+04   3.645425427667349e-01  -3.642522085507153e+00   3.533811193230543e+00   6.039408892080419e-05
2017-01-01T01:10:30.000   7.199112106882343e+03   2.148835920143408e+04   3.651459296189105e-01  -3.644997782145872e+00   3.526446414684629e+00   6.028331874431895e-05
2017-01-01T01:10:40.000   7.162649832915187e+03   2.152358687956767e+04   3.657482098531936e-01  -3.647453858090183e+00   3.519090856950797e+00   6.017276621566290e-05
2017-01-01T01:10:50.000   7.126163096018291e+03   2.155874104825851e+04   3.663493856499498e-01  -3.649890399747258e+00   3.511744547110734e+00   6.006243155799762e-05
2017-01-01T01:11:00.000   7.089652090938563e+03   2.159382180027794e+04   3.669494591916945e-01  -3.652307493279942e+00   3.504407511781427e+00   5.995231498774629e-05
2017-01-01T01:11:10.000   7.053117011578925e+03   2.162882922864629e+04   3.675484326628180e-01  -3.654705224604838e+00   3.497079777121613e+00   5.984241671466989e-05
2017-01-01T01:11:20.000   7.016558051035657e+03   2.166376342658882e+04   3.681463082488539e-01  -3.657083679387539e+00   3.489761368843510e+00   5.973273694209348e-05
2017-01-01T01:11:30.000   6.979975401631867e+03   2.169862448750873e+04   3.687430881360164e-01  -3.659442943041024e+00   3.482452312221799e+00   5.962327586700578e-05
2017-01-01T01:11:40.000   6.943369254811667e+03   2.173341250508296e+04   3.693387745128580e-01  -3.661783100730908e+00   3.475152632076212e+00   5.951403367980206e-05
2017-01-01T01:11:50.000   6.906739801627301e+03   2.176812757280649e+04   3.699333695624624e-01  -3.664104237345422e+00   3.467862352870604e+00   5.940501056580185e-05
2017-01-01T01:12:00.000   6.870087232154895e+03   2.180276978453628e+04   3.705268754717860e-01  -3.666406437529868e+00   3.460581498601062e+00   5.929620670353406e-05
2017-01-01T01:12:10.000   6.833411735714901e+03   2.183733923428214e+04   3.711192944280836e-01  -3.668689785672191e+00   3.453310092842790e+00   5.918762226547594e-05
2017-01-01T01:12:20.000   6.796713500031224e+03   2.187183601699836e+04   3.717106286324853e-01  -3.670954365954732e+00   3.446048158586444e+00   5.907925741547293e-05
2017-01-01T01:12:30.000   6.759992712074809e+03   2.190626022778470e+04   3.723008802863190e-01  -3.673200262300510e+00   3.438795718408918e+00   5.897111231144887e-05
2017-01-01T01:12:40.000   6.723249557876034e+03   2.194061196206353e+04   3.728900515941537e-01  -3.675427558384595e+00   3.431552794438976e+00   5.886318710483148e-05
2017-01-01T01:12:50.000   6.686484223000039e+03   2.197489131512065e+04   3.734781447559586e-01  -3.677636337601820e+00   3.424319408456084e+00   5.875548194225789e-05
2017-01-01T01:13:00.000   6.649696892199152e+03   2.200909838244165e+04   3.740651619728602e-01  -3.679826683089950e+00   3.417095581823053e+00   5.864799696434075e-05
2017-01-01T01:13:10.000   6.612887749414221e+03   2.204323325970371e+04   3.746511054470239e-01  -3.681998677727840e+00   3.409881335490208e+00   5.854073230582170e-05
